start=new Date('2021-10-08T00:00:00.000Z').valueOf();
sats=[{"EPOCH":"2021-10-07T14:59:38.884704","MEAN_MOTION_DDOT":"0.0000000000000","TIME_SYSTEM":"UTC","REV_AT_EPOCH":"9780","MEAN_ELEMENT_THEORY":"SGP4","LAUNCH_DATE":"2020-01-07","CLASSIFICATION_TYPE":"U","FILE":"3150302","REF_FRAME":"TEME","MEAN_MOTION_DOT":"0.00000179","DECAY_DATE":null,"ARG_OF_PERICENTER":"95.4987","TLE_LINE1":"1 44932U 20001U   21280.62475561  .00000179  00000-0  30910-4 0  9998","APOAPSIS":"548.241","OBJECT_ID":"2020-001U","OBJECT_NAME":"STARLINK-1130","ECCENTRICITY":"0.00014820","MEAN_ANOMALY":"264.6171","COUNTRY_CODE":"US","GP_ID":"186509811","EPHEMERIS_TYPE":"0","BSTAR":"0.00003091000000","RCS_SIZE":"LARGE","RA_OF_ASC_NODE":"32.4515","OBJECT_TYPE":"PAYLOAD","NORAD_CAT_ID":"44932","SITE":"AFETR","SEMIMAJOR_AXIS":"6925.350","INCLINATION":"53.0546","ELEMENT_SET_NO":"999","PERIOD":"95.592","PERIAPSIS":"546.189","CENTER_NAME":"EARTH","TLE_LINE2":"2 44932  53.0546  32.4515 0001482  95.4987 264.6171 15.06399558 97806","MEAN_MOTION":"15.06399558"},{"OBJECT_TYPE":"PAYLOAD","NORAD_CAT_ID":"44933","RCS_SIZE":"LARGE","RA_OF_ASC_NODE":"32.6242","SITE":"AFETR","EPHEMERIS_TYPE":"0","GP_ID":"186481252","COUNTRY_CODE":"US","BSTAR":"-0.00017003000000","TLE_LINE2":"2 44933  53.0552  32.6242 0001271  93.3291 266.7843 15.06416834 97855","CENTER_NAME":"EARTH","MEAN_MOTION":"15.06416834","INCLINATION":"53.0552","SEMIMAJOR_AXIS":"6925.297","PERIOD":"95.591","PERIAPSIS":"546.282","ELEMENT_SET_NO":"999","MEAN_MOTION_DOT":"-0.00002814","DECAY_DATE":null,"FILE":"3149908","REF_FRAME":"TEME","ARG_OF_PERICENTER":"93.3291","TLE_LINE1":"1 44933U 20001V   21280.58420510 -.00002814  00000-0 -17003-3 0  9995","TIME_SYSTEM":"UTC","REV_AT_EPOCH":"9785","MEAN_MOTION_DDOT":"0.0000000000000","EPOCH":"2021-10-07T14:01:15.320640","LAUNCH_DATE":"2020-01-07","CLASSIFICATION_TYPE":"U","MEAN_ELEMENT_THEORY":"SGP4","OBJECT_NAME":"STARLINK-1144","MEAN_ANOMALY":"266.7843","ECCENTRICITY":"0.00012710","APOAPSIS":"548.042","OBJECT_ID":"2020-001V"},{"TLE_LINE1":"1 44934U 20001W   21280.66346292  .00002238  00000-0  16901-3 0  9993","ARG_OF_PERICENTER":"104.4107","REF_FRAME":"TEME","FILE":"3150302","DECAY_DATE":null,"MEAN_MOTION_DOT":"0.00002238","MEAN_ELEMENT_THEORY":"SGP4","LAUNCH_DATE":"2020-01-07","CLASSIFICATION_TYPE":"U","EPOCH":"2021-10-07T15:55:23.196288","MEAN_MOTION_DDOT":"0.0000000000000","TIME_SYSTEM":"UTC","REV_AT_EPOCH":"9685","ECCENTRICITY":"0.00010810","MEAN_ANOMALY":"255.7002","OBJECT_NAME":"STARLINK-1071","OBJECT_ID":"2020-001W","APOAPSIS":"547.901","SITE":"AFETR","RA_OF_ASC_NODE":"12.2688","RCS_SIZE":"LARGE","OBJECT_TYPE":"PAYLOAD","NORAD_CAT_ID":"44934","BSTAR":"0.00016901000000","COUNTRY_CODE":"US","EPHEMERIS_TYPE":"0","GP_ID":"186509311","MEAN_MOTION":"15.06419812","CENTER_NAME":"EARTH","TLE_LINE2":"2 44934  53.0559  12.2688 0001081 104.4107 255.7002 15.06419812 96853","ELEMENT_SET_NO":"999","PERIAPSIS":"546.404","PERIOD":"95.591","SEMIMAJOR_AXIS":"6925.288","INCLINATION":"53.0559"},{"SITE":"AFETR","NORAD_CAT_ID":"44935","OBJECT_TYPE":"PAYLOAD","RA_OF_ASC_NODE":"355.0325","RCS_SIZE":"LARGE","BSTAR":"-0.00004000600000","EPHEMERIS_TYPE":"0","GP_ID":"186480060","COUNTRY_CODE":"US","MEAN_MOTION":"15.71480097","TLE_LINE2":"2 44935  53.0538 355.0325 0002040  33.3547 326.7599 15.71480097 97082","CENTER_NAME":"EARTH","PERIAPSIS":"353.295","PERIOD":"91.633","ELEMENT_SET_NO":"999","INCLINATION":"53.0538","SEMIMAJOR_AXIS":"6732.803","TLE_LINE1":"1 44935U 20001X   21280.46896358 -.00005823  00000-0 -40006-4 0  9994","ARG_OF_PERICENTER":"33.3547","DECAY_DATE":null,"MEAN_MOTION_DOT":"-0.00005823","REF_FRAME":"TEME","FILE":"3149893","CLASSIFICATION_TYPE":"U","LAUNCH_DATE":"2020-01-07","MEAN_ELEMENT_THEORY":"SGP4","TIME_SYSTEM":"UTC","REV_AT_EPOCH":"9708","MEAN_MOTION_DDOT":"0.0000000000000","EPOCH":"2021-10-07T11:15:18.453312","MEAN_ANOMALY":"326.7599","ECCENTRICITY":"0.00020400","OBJECT_NAME":"STARLINK-1072","OBJECT_ID":"2020-001X","APOAPSIS":"356.042"},{"OBJECT_NAME":"STARLINK-1078","ECCENTRICITY":"0.00067610","MEAN_ANOMALY":"302.9245","APOAPSIS":"311.299","OBJECT_ID":"2020-001Y","REF_FRAME":"TEME","FILE":"3150302","MEAN_MOTION_DOT":"0.00725455","DECAY_DATE":null,"TLE_LINE1":"1 44936U 20001Y   21280.86854420  .00725455  00000-0  23611-2 0  9992","ARG_OF_PERICENTER":"57.2430","MEAN_MOTION_DDOT":"0.0000000000000","EPOCH":"2021-10-07T20:50:42.218880","TIME_SYSTEM":"UTC","REV_AT_EPOCH":"9774","MEAN_ELEMENT_THEORY":"SGP4","LAUNCH_DATE":"2020-01-07","CLASSIFICATION_TYPE":"U","CENTER_NAME":"EARTH","TLE_LINE2":"2 44936  53.0584 310.0511 0006761  57.2430 302.9245 15.88396858 97748","MEAN_MOTION":"15.88396858","SEMIMAJOR_AXIS":"6684.914","INCLINATION":"53.0584","ELEMENT_SET_NO":"999","PERIAPSIS":"302.259","PERIOD":"90.657","RA_OF_ASC_NODE":"310.0511","RCS_SIZE":"LARGE","NORAD_CAT_ID":"44936","OBJECT_TYPE":"PAYLOAD","SITE":"AFETR","COUNTRY_CODE":"US","GP_ID":"186510312","EPHEMERIS_TYPE":"0","BSTAR":"0.00236110000000"},{"LAUNCH_DATE":"2020-01-07","CLASSIFICATION_TYPE":"U","MEAN_ELEMENT_THEORY":"SGP4","REV_AT_EPOCH":"9685","TIME_SYSTEM":"UTC","MEAN_MOTION_DDOT":"0.0000000000000","EPOCH":"2021-10-07T15:23:32.214912","ARG_OF_PERICENTER":"103.7154","TLE_LINE1":"1 44937U 20001Z   21280.64134508  .00000541  00000-0  55203-4 0  9993","DECAY_DATE":null,"MEAN_MOTION_DOT":"0.00000541","REF_FRAME":"TEME","FILE":"3150302","OBJECT_ID":"2020-001Z","APOAPSIS":"548.121","MEAN_ANOMALY":"256.3982","ECCENTRICITY":"0.00013140","OBJECT_NAME":"STARLINK-1079","BSTAR":"0.00005520300000","GP_ID":"186510038","EPHEMERIS_TYPE":"0","COUNTRY_CODE":"US","SITE":"AFETR","OBJECT_TYPE":"PAYLOAD","NORAD_CAT_ID":"44937","RCS_SIZE":"LARGE","RA_OF_ASC_NODE":"12.3768","PERIOD":"95.592","PERIAPSIS":"546.301","ELEMENT_SET_NO":"999","INCLINATION":"53.0551","SEMIMAJOR_AXIS":"6925.346","MEAN_MOTION":"15.06400922","TLE_LINE2":"2 44937  53.0551  12.3768 0001314 103.7154 256.3982 15.06400922 96857","CENTER_NAME":"EARTH"},{"ECCENTRICITY":"0.00012630","MEAN_ANOMALY":"250.1459","OBJECT_NAME":"STARLINK-1082","OBJECT_ID":"2020-001AA","APOAPSIS":"548.077","TLE_LINE1":"1 44938U 20001AA  21280.67451445  .00001844  00000-0  14266-3 0  9999","ARG_OF_PERICENTER":"109.9666","FILE":"3150302","REF_FRAME":"TEME","DECAY_DATE":null,"MEAN_MOTION_DOT":"0.00001844","MEAN_ELEMENT_THEORY":"SGP4","CLASSIFICATION_TYPE":"U","LAUNCH_DATE":"2020-01-07","EPOCH":"2021-10-07T16:11:18.048480","MEAN_MOTION_DDOT":"0.0000000000000","REV_AT_EPOCH":"9685","TIME_SYSTEM":"UTC","MEAN_MOTION":"15.06403709","CENTER_NAME":"EARTH","TLE_LINE2":"2 44938  53.0558  12.2176 0001263 109.9666 250.1459 15.06403709 96853","ELEMENT_SET_NO":"999","PERIAPSIS":"546.328","PERIOD":"95.592","SEMIMAJOR_AXIS":"6925.337","INCLINATION":"53.0558","SITE":"AFETR","RA_OF_ASC_NODE":"12.2176","RCS_SIZE":"LARGE","OBJECT_TYPE":"PAYLOAD","NORAD_CAT_ID":"44938","BSTAR":"0.00014266000000","COUNTRY_CODE":"US","GP_ID":"186508812","EPHEMERIS_TYPE":"0"},{"SITE":"AFETR","NORAD_CAT_ID":"44939","OBJECT_TYPE":"PAYLOAD","RCS_SIZE":"LARGE","RA_OF_ASC_NODE":"12.1953","BSTAR":"0.00006733200000","GP_ID":"186509555","EPHEMERIS_TYPE":"0","COUNTRY_CODE":"US","MEAN_MOTION":"15.06398477","TLE_LINE2":"2 44939  53.0552  12.1953 0001148 106.3762 253.7353 15.06398477 96857","CENTER_NAME":"EARTH","PERIOD":"95.592","PERIAPSIS":"546.423","ELEMENT_SET_NO":"999","INCLINATION":"53.0552","SEMIMAJOR_AXIS":"6925.353","ARG_OF_PERICENTER":"106.3762","TLE_LINE1":"1 44939U 20001AB  21280.68189271  .00000722  00000-0  67332-4 0  9993","MEAN_MOTION_DOT":"0.00000722","DECAY_DATE":null,"REF_FRAME":"TEME","FILE":"3150302","LAUNCH_DATE":"2020-01-07","CLASSIFICATION_TYPE":"U","MEAN_ELEMENT_THEORY":"SGP4","TIME_SYSTEM":"UTC","REV_AT_EPOCH":"9685","EPOCH":"2021-10-07T16:21:55.530144","MEAN_MOTION_DDOT":"0.0000000000000","MEAN_ANOMALY":"253.7353","ECCENTRICITY":"0.00011480","OBJECT_NAME":"STARLINK-1083","OBJECT_ID":"2020-001AB","APOAPSIS":"548.013"},{"TIME_SYSTEM":"UTC","REV_AT_EPOCH":"9684","EPOCH":"2021-10-07T15:02:18.283200","MEAN_MOTION_DDOT":"0.0000000000000","CLASSIFICATION_TYPE":"U","LAUNCH_DATE":"2020-01-07","MEAN_ELEMENT_THEORY":"SGP4","DECAY_DATE":null,"MEAN_MOTION_DOT":"0.00000214","REF_FRAME":"TEME","FILE":"3150302","TLE_LINE1":"1 44940U 20001AC  21280.62660050  .00000214  00000-0  33244-4 0  9999","ARG_OF_PERICENTER":"103.3083","APOAPSIS":"547.967","OBJECT_ID":"2020-001AC","OBJECT_NAME":"STARLINK-1091","MEAN_ANOMALY":"256.8027","ECCENTRICITY":"0.00010820","EPHEMERIS_TYPE":"0","GP_ID":"186509812","COUNTRY_CODE":"US","BSTAR":"0.00003324400000","NORAD_CAT_ID":"44940","OBJECT_TYPE":"PAYLOAD","RA_OF_ASC_NODE":"12.4323","RCS_SIZE":"LARGE","SITE":"AFETR","INCLINATION":"53.0556","SEMIMAJOR_AXIS":"6925.353","PERIAPSIS":"546.469","PERIOD":"95.592","ELEMENT_SET_NO":"999","TLE_LINE2":"2 44940  53.0556  12.4323 0001082 103.3083 256.8027 15.06398595 96849","CENTER_NAME":"EARTH","MEAN_MOTION":"15.06398595"},{"BSTAR":"0.00017528000000","COUNTRY_CODE":"US","GP_ID":"186510539","EPHEMERIS_TYPE":"0","SITE":"AFETR","RCS_SIZE":"LARGE","RA_OF_ASC_NODE":"12.0360","OBJECT_TYPE":"PAYLOAD","NORAD_CAT_ID":"44941","ELEMENT_SET_NO":"999","PERIOD":"95.592","PERIAPSIS":"546.458","SEMIMAJOR_AXIS":"6925.350","INCLINATION":"53.0556","MEAN_MOTION":"15.06399429","CENTER_NAME":"EARTH","TLE_LINE2":"2 44941  53.0556  12.0360 0001093  95.8258 264.2856 15.06399429 96860","MEAN_ELEMENT_THEORY":"SGP4","CLASSIFICATION_TYPE":"U","LAUNCH_DATE":"2020-01-07","MEAN_MOTION_DDOT":"0.0000000000000","EPOCH":"2021-10-07T17:09:42.014304","REV_AT_EPOCH":"9686","TIME_SYSTEM":"UTC","ARG_OF_PERICENTER":"95.8258","TLE_LINE1":"1 44941U 20001AD  21280.71506961  .00002330  00000-0  17528-3 0  9997","REF_FRAME":"TEME","FILE":"3150302","DECAY_DATE":null,"MEAN_MOTION_DOT":"0.00002330","OBJECT_ID":"2020-001AD","APOAPSIS":"547.972","ECCENTRICITY":"0.00010930","MEAN_ANOMALY":"264.2856","OBJECT_NAME":"STARLINK-1094"}];
